[{"OBJECT_NAME":"ONEWEB-0136","OBJECT_ID":"2020-100AA","EPOCH":"2026-03-09T20:30:33.450912","MEAN_MOTION":13.12443913,"ECCENTRICITY":0.00020405,"INCLINATION":87.9001,"RA_OF_ASC_NODE":10.3638,"ARG_OF_PERICENTER":86.1247,"MEAN_ANOMALY":274.0115,"EPHEMERIS_TYPE":0,"CLASSIFICATION_TYPE":"U","NORAD_CAT_ID":47282,"ELEMENT_SET_NO":999,"REV_AT_EPOCH":25163,"BSTAR":-0.00065518532,"MEAN_MOTION_DOT":-2.23e-6,"MEAN_MOTION_DDOT":0},{"OBJECT_NAME":"COSMOS 1691 DEB","OBJECT_ID":"1985-094L","EPOCH":"2026-03-07T22:09:28.514880","MEAN_MOTION":13.19792324,"ECCENTRICITY":0.00487005,"INCLINATION":82.6355,"RA_OF_ASC_NODE":224.5327,"ARG_OF_PERICENTER":346.5093,"MEAN_ANOMALY":138.7403,"EPHEMERIS_TYPE":0,"CLASSIFICATION_TYPE":"U","NORAD_CAT_ID":16267,"ELEMENT_SET_NO":999,"REV_AT_EPOCH":53103,"BSTAR":0.0093500911,"MEAN_MOTION_DOT":3.784e-5,"MEAN_MOTION_DDOT":0}]
